provider_id,provider_name,zip_code,longitude,latitude,uf,online_service,weekend_service
7220073,clinica odontologica popular rio madeira,76801073,-63.904,-8.762,11,0,0
2941201,cmtr clinica de medicina do trafego de rondonia,76829628,-63.896484375,-8.743936220084125,11,1,0
9995587,akaki neuro center,76960970,-61.45054578781128,-11.434515540325636,11,1,0
6816029,odontobem,76940000,-61.777128,-11.724511,11,0,0
7070675,orto germain,76980164,-60.1296769,-12.7445,11,0,1
3791300,farmacia norte saude,76807141,-63.8729667,-8.7796745,11,0,1
7823193,unidade epidemiologica e endemias,76888000,-63.301757,-10.260019,11,1,0
617768,carlos geraldo odontologia,76829580,-63.83829116821289,-8.760223824796954,11,0,0
5872308,angiocath,76900020,-61.944,-10.882,11,0,0
957011,central de regulacao municipal sao francisco do guapore,76935000,-63.569,-12.062,11,1,1
3820793,clinica de diagnostico e tratamento de osteoporose,69900550,-67.81,-9.975,12,0,1
7594763,central estadual de abastecimento farmaceutico caf,69900604,-67.81,-9.975,12,1,0
9203389,dr saude acre,69900070,-67.81,-9.975,12,1,0
70904,posto de saude ostiano castro filho,69117000,-59.7,-2.699,13,1,1
9296808,unidade movel tipo b usb wf 25,69053135,-60.0152721,-3.0971295,13,1,1
2019388,cemed centro medico de diagnosticos,69010080,-60.01957654953003,-3.131710208359399,13,0,0
605808,dr hallyson castro odontologia,69445000,-61.404701471328735,-3.5796303942109176,13,1,1
5320720,clinica santa barbara,69090040,-60.02483367919922,-3.10149963997621,13,0,0
5315557,ana luiza cardoso cruz veloso,69025020,-60.025,-3.102,13,0,1
5362911,unidade basica de saude ubs sao francisco,69700000,-62.92522966861725,-0.978719973442348,13,1,0
6504981,clinica multivida,69306700,-60.673,2.82,14,1,1
9327320,posto de saude indigena tabatinga,69358000,-60.168,4.596,14,1,0
7802455,unidade de saude da familia jardim tropical,68800000,-50.485053062438965,-1.6779646282761616,15,0,1
5051916,alberto steven skelding pinheiro,66055050,-48.504,-1.456,15,0,1
5760569,centro de reabilitacao e fisioterapia,68447000,-48.698036670684814,-1.517952697744998,15,1,1
2313820,estrategia de saude da familia do mangueirao,68620000,-46.14912271499634,-1.2005547245723946,15,0,0
2317397,hospital e maternidade santana,68430000,-48.96002411842346,-1.9843466624707506,15,1,0
6646204,voxel,66055200,-48.4862187,-1.445973,15,0,0
3961478,consultorio dra luiza cabral,66055280,-48.504,-1.456,15,1,0
5044162,amanda de almeida valerio couceiro,66055280,-48.504,-1.456,15,1,1
4005309,posto de saude guajara de beja,68440000,-48.837854862213135,-1.6537384309964138,15,1,1
5854865,nova imagem,67133180,-48.408894538879395,-1.3591945712810394,15,1,1
2916088,ubsi i boca do marapi,68250000,-55.494829423260505,-1.6054628325364686,15,0,0
6241794,vicente de paula paracampo de franco,66017050,-48.4979181,-1.4502887,15,0,0
7082266,crf,67130040,-48.40644836425781,-1.3818688421302312,15,0,0
2332078,posto de saude santo antonio,68270000,-56.01276397705078,-1.8917079140097552,15,0,0
2337339,hospital pronto socorro municipal mario pinotti,66050430,-48.4808636,-1.4396878,15,1,0
844683,ubs do rio anequara,68440000,-49.05000686645508,-1.7892789548519012,15,0,1
6745822,secretaria municipal de saude de ipixuna do para,68637000,-47.49496936798096,-2.5557907184180815,15,1,1
6989098,anthea rocha de souza,66063560,-48.504,-1.456,15,0,1
9247815,hospital pediatrico unimed,66055080,-48.485,-1.440,15,0,1
6243754,equipe de saude da familia centro,68475000,-50.21058797836304,-1.9004042361644835,15,1,0
2021366,pmm u b s conceicao rosa moita,68901610,-51.0822442,0.031587,16,0,0
7640013,pmm u b s ilha redonda,68900020,-51.066,0.039,16,1,0
7460600,unidade saude da familia dr menezes,77995000,-48.22724461555481,-5.317366935820728,17,0,1
6828841,secretaria municipal de saude de mateiros,77593000,-46.421,-10.548,17,1,0
7855273,ceop,77062020,-48.333,-10.167,17,0,1
796999,motricidade kids,77006030,-48.333,-10.167,17,1,1
2370727,unidade basica de saude antonio goncalves de lima,77723000,-47.33789920806885,-8.961935443280963,17,0,0
1034251,nova clinica,65020490,-44.302968978881836,-2.5301526153987046,21,0,0
7418590,consult psicologia e consultoria organizacional,65800000,-46.036,-7.533,21,0,1
902306,arte do dente,65900530,-47.48331736096743,-5.520850632067448,21,0,1
211478,central municipal de rede de frio de imperatriz,65916240,-47.47156709432602,-5.547345187812667,21,0,1
5479959,usf ines fernandes de lima,65545000,-42.652854,-3.498664,21,1,0
3788237,centro de atencao psicossocial nossa senhora do guadalupe,65725000,-44.5952996,-4.5654786,21,0,1
7859627,polo academia da saude,65378000,-45.554,-3.729,21,0,1
2308274,cardioclinica ss,65076821,-44.303,-2.53,21,1,1
3883469,ceo centro de especialidades odontologicas tres poderes,65901550,-47.485045194625854,-5.530347298736255,21,1,0
6740456,unidade de vigilancia em saude,65390000,-45.665303,-3.969183,21,0,1
3326853,ubs jose da conceicao rodrigues,65230000,-44.671337,-2.873113,21,0,0
982601,odontocompany,65020610,-44.303,-2.53,21,0,1
9123792,odonto essence,65067190,-44.303,-2.53,21,0,0
7944136,imagine,65076820,-44.303,-2.53,21,1,0
7973403,vigilancia em saude,65398000,-45.846861,-3.667621,21,1,1
7690630,ubs 27 banda,64260000,-41.777,-4.273,22,1,1
7290497,ubs dr francisco ferreira ramos,64325000,-42.1472829580307,-6.209130288255837,22,0,1
7077297,clinica sos fisio,64200490,-41.7734126,-2.9067769,22,1,0
9421750,farmacias ftb,64600002,-41.4677431,-7.0808522,22,0,1
6607187,secretaria municipal de saude de monsenhor hipolito,64650000,-41.031081676483154,-6.997204974298308,22,0,1
2325616,ps vicente de paula santos,64540000,-41.741,-6.828,22,0,0
9541489,unidade basica de saude alberto umbelino dos santos,64630000,-41.323,-6.943,22,0,0
670251,academia praca do clube do idoso,64380000,-42.3589081,-5.4583399,22,0,0
2669161,ps pedro aurelio neto,64540000,-41.741,-6.828,22,0,0
6240682,udi laboflor centro de exames medicos,64800066,-43.02022933959961,-6.771905064570972,22,1,1
997986,clinica fred carioca,60115046,-38.51288,-3.74346,23,0,1
3919749,clinica odontologica,63150000,-40.376,-7.074,23,0,0
5633699,dr paulo gilson a gomes,62140000,-40.3445266,-3.5242205,23,1,0
6158188,pedro henrique saraiva leao,60170190,-38.498274,-3.750727,23,1,1
5383382,centro de desenvolvimento psicossocial ltda,60177020,-38.480151,-3.741568,23,0,1
272884,clinica joao moreira,60030000,-38.527334,-3.722667,23,0,1
9493964,unidade de apoio ipanema i,62970000,-38.161958,-5.514028,23,1,1
7614608,luth savy de franca costa,60115171,-38.512080,-3.736247,23,1,0
6215785,climesp clinica de medicina especializada,62930000,-38.10333251953125,-5.15450439382195,23,0,1
2426285,unidade basica de saude deserto,62514000,-39.492,-3.514,23,1,0
6100988,manoel oliveira filho,60110370,-38.513656,-3.730738,23,0,1
9648399,laboratorio exame,61900025,-38.626,-3.877,23,0,1
2552205,posto de saude davi carlos dos santos,62930000,-37.955360412597656,-5.137108244573893,23,0,1
2846276,paula jaine ltda,62280000,-40.15747547149658,-4.330792061905998,23,0,1
6456367,carlos roberto cidrao morais,60040531,-38.531032,-3.747504,23,1,1
7127820,gabriel barroso cabral,60150162,-38.494908,-3.736815,23,0,1
6165354,carolina vannucci vasconcelos nogueira diogenes,60110370,-38.513688,-3.731487,23,1,0
5365813,ceo centro de especialidades odontologicas de solonopole,63620000,-39.00891065597534,-5.733018973976845,23,0,1
9301852,cajaty dermo clinic,60192200,-38.527493,-3.751173,23,0,0
9378111,clicir,60115125,-38.513299,-3.733901,23,0,1
9983082,clinica dr robson carvalho,60130235,-38.515130,-3.752738,23,1,0
5171423,labpasteur,60710000,-38.564150,-3.776710,23,1,1
3035042,unidade basica de saude psf 2,62665000,-39.243,-3.67,23,1,1
7093470,posto de saude de anil,62184000,-40.446938,-4.046585,23,0,0
6516041,secretaria municipal de saude de cruz,62595000,-40.18167704343796,-2.9301189245715764,23,0,1
9372067,clinica de ginecologista dr fortaleza,60115221,-38.508136,-3.732331,23,1,1
3423824,walter pereira de carvalho filho,63010032,-39.3202053,-7.2038303,23,0,0
846252,posto de saude macambira,63210000,-38.79861,-7.32436,23,1,0
6408850,servico de atencao especializada em hiv aids,62900000,-37.974238,-4.939891,23,0,1
2372053,usf senador fernandes tavora,61925210,-38.626,-3.877,23,0,0
7623720,interface odontologia integrada ss ltda,60160230,-38.489786,-3.735506,23,0,1
3916855,clinica san matheus,60110110,-38.538220,-3.756210,23,1,0
4013476,centro de reabilitacao e atencao especializada cerae rn,59015350,-35.195796489715576,-5.8111932188714785,24,0,1
5976995,clinam,59607020,-37.3544421,-5.1836288,24,1,1
2473232,ubs monte castelo i enf marcelino agostinho costa,59146110,-35.2605167,-5.9076777,24,0,1
515485,poty servicos de saude,59700000,-37.807754,-5.663600,24,1,0
9197559,laes laboratorio,59138540,-35.209,-5.795,24,0,0
6596401,orthos,59014530,-35.209,-5.795,24,0,1
2407892,posto de saude sitio maretas,59990000,-38.226,-6.195,24,1,0
5123372,intorse,59300000,-37.098,-6.458,24,1,1
652032,farmacia pague menos 0897,59056700,-35.20118991887939,-5.81867525,24,1,0
7468083,unidade basica de barreiros,59588000,-35.879,-5.15,24,0,1
7556071,vita pilatis,59300000,-37.098,-6.458,24,0,1
6809367,consultorio medico dr leonardo maia,59062280,-35.209,-5.795,24,0,1
7793685,natalia adelino xavier pontes de freitas,58200000,-35.487298930502284,-6.852374519858563,25,1,0
4068815,ambulancia basica tipo a,58348000,-35.291,-7.142,25,1,1
2362872,centro rad ricardo wanderley sc ltda,58400506,-35.8988464,-7.2272391,25,1,1
3006751,usf integrada vieira diniz,58084160,-34.90935802459717,-7.163617827698214,25,1,0
3146790,fisioclin,58013342,-34.863,-7.115,25,0,0
7324634,microlab,58830000,-37.809,-6.554,25,1,0
4137655,coife odonto joao pessoa,58055000,-34.8386081,-7.1698558,25,0,1
3746348,clinica dr jose leidson de almeida holanda,58020580,-34.8818476,-7.1132548,25,0,0
7355270,centro de saude jacinta dociana da silva,58832000,-37.725,-6.534,25,0,1
29742,citoclin,58995000,-38.155823,-7.706246,25,0,0
3138690,cepac matriz,58400506,-35.897416,-7.221924,25,1,0
2322331,ps angiquinho,58500000,-37.10932731628418,-7.867888033291771,25,0,1
7238916,hospital municipal de umbuzeiro pb,58497000,-35.66361665725708,-7.696340753572686,25,1,1
2613336,hosp mat sao vicente de paula,58360000,-35.333,-7.329,25,0,1
7305346,consultorio odontologico dr petronio pires xavier,58040350,-34.863,-7.115,25,1,1
832537,centro de especialidades medicas de aguiar,58778000,-38.17066669464111,-7.090501522389899,25,1,1
9241671,farmacia basica alcides caetano de freitas,58887000,-37.929,-6.445,25,1,1
4052374,maxiprime,55012190,-35.9700118,-8.2752035,26,0,1
7075375,roimagem,54510080,-35.035,-8.287,26,0,1
2433788,unidade mista ana argemira correia,55180000,-36.4985407,-7.9861342,26,0,1
930059,serfisio,51021330,-34.9050442,-8.1239201,26,0,0
2355043,ubs antonio pereira lima,56850000,-37.9761528968811,-7.867207851073539,26,0,1
7194013,clipheonco,50070530,-34.8929966,-8.066228,26,0,0
5668891,adelia maria trigueiro da silva teixeira,53030000,-34.8390456,-7.9983,26,1,1
2630435,psf alto bonito ii,55680000,-35.729,-8.47,26,0,0
2841649,unidade de saude da familia do jacana,55191695,-36.1934106,-7.9290739,26,0,1
9929460,academia da saude do pedra branca,55192020,-36.205,-7.957,26,1,0
6561780,secretaria municipal de saude,56140000,-39.296,-7.933,26,0,1
9628916,clinica odontoben,54400090,-34.9114207,-8.1594414,26,1,0
7332076,samu 192 itambe pe,55920000,-35.11447191238403,-7.406111553060115,26,1,0
2346230,usf vila da fabrica,54768792,-34.981,-8.022,26,1,0
5039223,psf vale verde,55695000,-35.712427496910095,-8.32739919664765,26,0,1
9859934,caf central de abastecimento farmaceutico bonito,55680000,-35.7325837,-8.4722793,26,0,1
7578954,pni,56903000,-38.296,-7.986,26,1,0
26336,us 265 usf mangueira i,50761610,-34.881,-8.054,26,0,0
2984342,daniele borges fontan,51110160,-34.89448472958861,-8.0855585,26,1,1
367389,central de rede de frio de maraial,55405000,-35.819549560546875,-8.794154041638716,26,0,0
6594808,secretaria de saude de primavera,55510000,-35.354,-8.331,26,1,1
4029364,unidade de saude da familia aroeiras,55720000,-35.579566955566406,-7.850883143326774,26,1,1
3162354,clinica medica odontologica,56505380,-37.054,-8.419,26,1,0
106089,central municipal de rede de frio cmrf,55398000,-36.48859977722168,-8.70807129023149,26,0,0
2797976,ubs jose carlos de oliveira ii e iii,55042330,-36.01140260696411,-8.272607649408846,26,0,1
7699204,centro de diagnostico manuel vieira,55900000,-34.999566078186035,-7.557440500938983,26,0,1
9599460,usf luzinete guilherme ferreira,55820000,-35.307698249816895,-7.833452408875337,26,0,0
2630419,psf bentevi,55680000,-35.596125,-8.484,26,0,1
6800114,unidade de saude da familia i,57180000,-35.9059327,-9.8444496,27,0,0
7150105,clinica integrada reviver,57055040,-35.73498487472534,-9.6492486,27,1,1
77461,academia da saude renato vieira,57515000,-37.5305146,-9.4105445,27,0,1
9534075,medicar home care,57052880,-35.743111,-9.6155078,27,0,1
6135803,cons medico maria helena de melo amorim brandao,57080000,-35.738593,-9.6661886,27,0,1
7603037,reavita fisioterapia funcional,57017056,-35.747534,-9.6617677,27,0,0
9869794,sos otorrino,57301100,-36.661,-9.752,27,0,0
9677356,olhar oftalmologia especializada,57036640,-35.7069432,-9.6464686,27,0,0
2011549,secretaria municipal de saude de maribondo,57670000,-36.30898833274841,-9.581485815387643,27,0,1
853186,comunicar brincalala saude integrada eireli,49052270,-37.072,-10.911,28,0,1
3305392,manoel arnon marinho de queiroz,49015420,-37.072,-10.911,28,0,1
9330194,acn odonto clean,49015130,-37.050734,-10.922452,28,0,1
3534189,emilia monteiro montalvao tonin,49035660,-37.072,-10.911,28,1,1
458147,proctovasc,49010320,-37.6422135,-11.2271402,28,0,1
5303591,maria das gracas montalvao costa,49035660,-37.072,-10.911,28,0,1
553662,mirene de oliveira morais,49015150,-37.06501252742471,-10.950004799999999,28,0,0
9275312,fabio breno ruan santos alves,49015150,-37.0551534,-10.9208332,28,0,1
5161266,regina maria lima de oliveira andrade,49045280,-37.072,-10.911,28,0,0
832189,venha sorrir,45065000,-40.8561909198761,-14.874269433431081,29,0,1
457663,famarcia pague menos,41760000,"-38,4479","-12,9924",29,0,1
9377204,labomed,45360000,-40.43625354766846,-13.441382545891244,29,1,1
6704085,unifetos,44001496,-38.9544448,-12.2556799,29,0,1
9309578,r e c s,45023305,-40.84774732589722,-14.875695211371882,29,1,1
6144365,consultorio odontologico da dr sarita,45836000,-39.531,-17.039,29,1,0
3766241,clinica carlos menezes e giordano matos,41940060,-38.4804476866054,-13.00082535,29,0,1
9821171,academia da saude de brotas de macaubas,47560000,-42.62581318616867,-12.00219953199059,29,0,1
7386710,nasf rio de contas,46170000,-41.81244134902954,-13.58127431370753,29,0,1
7061528,samu 192 usb de guanambi,46430000,-42.781,-14.223,29,1,1
5278120,clinica rosa dos ventos,44350000,-39.043,-12.602,29,1,0
7640021,farmacia guedes,46438959,-43.554,-14.414,29,0,1
9478221,clinica de medicina,41940455,-38.511,-12.971,29,0,1
3777901,rosangela guanaes gomes torres,41825900,-38.4649224,-12.996365,29,0,1
6303889,citolab,44700000,-40.518,-11.181,29,0,1
3413098,oftalmo center,45820970,-39.5606813,-16.3718199,29,0,1
7413459,unidade basica de saude chapada grande,47600000,-43.135178089141846,-13.334692770654188,29,0,1
395579,unidade satelete da baixa da cainana,44885000,-41.639277935028076,-11.96017183632186,29,1,1
257842,clinicas d o c,41820021,"-38,4647","-12,9804",29,0,1
6770975,cirface,44075425,-38.9544448,-12.2556799,29,0,1
2869519,servico universitario de saude,47810059,-45.01342954368506,-12.142907811593641,29,1,0
38911,master senior clinica do idoso,44001496,-38.93923759460449,-12.256518167360035,29,0,1
6988407,unidade de suporte avancada cc 70,40320350,-38.4875750541687,-12.959268341294129,29,0,0
272450,inovar odontologia especializada ltda,47850188,-45.807805,-12.0829933,29,0,0
2401525,usf jardim cruzeiro,44020260,-38.980177,-12.2453773,29,0,1
2771373,unidade saude da familia nova dias d avila,42850000,-38.272305,-12.636144,29,1,0
205591,centro de atendimento sindromes respiratoria covid19 ituacu,46640000,-41.29553448837075,-13.81445525,29,1,1
3871800,alan jubi antezana urquidi,47640000,-44.2028269,-13.3981435,29,0,1
7995067,maria dajuda pires bastos,45987084,-39.7205114364624,-17.53855999058697,29,1,0
4024168,unidade de saude da familia agenor nunes rios,44645000,-39.838,-11.668,29,0,0
6843239,vigilancia sanitaria,45675000,-39.32479441165924,-14.317479697386835,29,0,0
6263259,unidade de saude da familia praca da bandeira,47500000,-43.18925142288208,-12.694644663648628,29,1,1
9213015,a2 avancada,45651610,-39.0436429,-14.7832829,29,0,1
3059227,unidade odontologica movel,42702440,-38.326779,-12.897803,29,0,1
5496950,dermoclin,44110000,-38.9600291,-12.253608,29,1,1
6466184,unidade basica de saude tumbalala alonso jose da silva,48930000,-39.37328338623047,-8.552843368576834,29,1,1
3433803,usf do sitio matias,44091196,-38.967,-12.267,29,0,0
7072686,consultorio holtz,44110000,-38.9614034,-12.2552102,29,1,0
658391,bucalmed clinica odontologica,42850000,-38.29190254211426,-12.61910669752753,29,0,1
2814072,secretaria municipal de saude,46875000,-39.698,-12.712,29,0,0
838047,central de marcacao,48730000,-39.28568243980408,-11.566143767762844,29,0,1
6520286,guerra odontologia integrada,42600000,-38.617311,-12.745248,29,1,0
3045390,usf hilda cerqueira de oliveira,45355000,-39.744,-13.856,29,1,1
3272818,climedi,47520000,-43.221,-12.185,29,0,1
6193641,consultorio odontologico dr m ligia ramosa de souza dutra,44600000,-39.7407902,-12.1570257,29,1,0
6865011,clinica de fisioterapia e psicologia,48860000,-39.624,-10.978,29,1,1
7990553,sae cta santa maria da vitoria,47640000,-44.192354679107666,-13.386133540632283,29,1,0
9562486,farmacias pague menos,45075000,-40.852006673812866,-14.850423845679375,29,0,1
7596871,upa do cabula,41180900,-38.45121502876282,-12.95658124536197,29,0,0
773425,elivane fonseca odontologia,35970000,-43.48665,-19.92581,31,1,0
6742432,everardo alvarenga costa,31015310,-43.9301797,-19.9109619,31,0,0
3545342,consultorio odontologico lucas caldas fontes martins,35900011,-43.227,-19.619,31,1,1
5126649,silesio do prado,38400452,-48.2849349,-18.9143862,31,1,1
7267207,centro de especialidades odontologicas dr plauto malachias,35630140,-45.2508233,-19.7307009,31,1,0
5241170,edmar gonzalez ramos,30160040,-43.93814563751221,-19.917375358673937,31,1,1
7167474,presidio itambacuri,39830000,-41.685,-18.031,31,1,0
5554276,unidade de saude da familia da berta,37466000,-44.861941,-22.291112,31,0,0
931373,clinica saude integrada,35460000,-44.2031189,-20.1436915,31,1,0
5717353,maxima odontologia s c ltda,30140110,-43.92912268638611,-19.93578322469953,31,1,1
6128963,unidade basica de saude santa filomena,35790105,-44.431,-18.756,31,0,1
5439760,sebastiao lima goncalves,35010080,-41.9491351,-18.8596131,31,1,0
2776413,uaps 04 gilberto campos de oliveira de joaima,39890000,-41.01863622665405,-16.66242399893025,31,1,0
6297943,unidade de saude da familia santa barbara,39400002,-43.933289,-16.820086,31,1,1
6367534,ana dulce pamplona frade,35588000,-45.539472699165344,-20.28481636114357,31,0,0
9277978,cedoc,39740000,-42.9414971,-18.7809123,31,1,1
6651399,centro psico medico,36016310,-43.35,-21.764,31,0,1
6629482,centro odontologico dr robson jose ferreira ltda,30160032,-43.9422003741902,-19.9385534,31,0,1
9871047,equipe de atencao primaria jose francisco dos santos,35110000,-41.919546,-18.579429,31,0,1
680788,sabara cobt sociedade medica ltda,34505480,-43.8056798,-19.8880463,31,1,1
6814506,secretaria municipal da saude,36510000,-42.865,-21.2,31,0,1
7053118,ubs maria eugenia goncalves dona lia,35774000,-44.4049854574886,-19.26182845,31,0,0
111945,cristiane de abreu pricoli miranda,37540000,-45.7083795,-22.2456927,31,1,0
6065945,fisiocor,35010380,-41.9470691,-18.8510885,31,0,0
2141795,unidade basica de saude de penha longa,36635000,-43.0859785,-22.0575822,31,0,1
3606988,fisiomed,32600125,-44.2008515,-19.9674228,31,1,0
2154803,clinica radiologica de contagem ltda,32310370,-44.1425644,-19.8118076,31,1,0
9170901,centro socioeducativo andradas,31015012,-43.956,-19.817,31,0,0
5405211,rozana castorina da silva,30110002,-43.9460409,-19.9173216,31,1,1
7809786,sued mara scardini goncalves,37558440,-45.92921097353889,-22.251927418595958,31,0,1
2172275,laboratorio anaclin,36410076,-43.858,-20.5,31,1,1
3871975,adilson de barros pouso alegre,37554123,-45.923731327056885,-22.22795137536457,31,0,0
9927034,monique souza cury magalhaes,30150221,-43.9277254,-19.9221646,31,0,1
9520643,drogaria sao jose,35920000,-43.035279,-19.764847,31,0,1
4116259,drogaria americana,36284012,-43.79917,-20.95033,31,0,1
9970258,rn saude,38020310,-47.932,-19.748,31,1,0
7921594,glaucia maria leitao da silva de albuquerque,32230020,-44.0355933,-19.9693767,31,1,1
2113260,jose savio de carvalho pinto,35490000,-44.067351652484334,-20.666012000000002,31,0,1
177490,ultrassom unimed varginha,37006710,-45.4391169,-21.5644661,31,0,0
7658125,sao marcos unidade abeb contagem,32210110,-44.054,-19.932,31,1,0
5237904,alessandra moreira soares,38440062,-48.187,-18.649,31,1,0
9276807,instituto hermes pardini filial pedro leopoldo,33250054,-44.0454162,-19.6185081,31,0,1
3621804,consultorio medico doutora marcia andrea mesquita mendes,37190000,-45.51727741956711,-21.366078876330366,31,1,0
7922388,patricia tunes da cunha,31275050,-43.9600013,-19.857157,31,1,0
2117614,ubs alianca,39495000,-44.366,-14.423,31,0,0
7160097,unidade rede farmacia de minas,36430000,-43.6894489,-20.7882315,31,0,1
7148828,clinica de terapia ocupacional arte de viver s s ltda me,37701025,-46.5661433,-21.7801624,31,1,0
9919791,botica fontenelle,36570236,-42.8808417,-20.7570115,31,1,1
6119778,maria lucia peixoto aleixo,30140904,-43.92866134643555,-19.930750273210965,31,0,1
3392325,henrique pretti ortodontia ltda,30130008,-43.9257023,-19.9396969,31,0,0
3708764,paula paulino borges,38440122,-48.193377,-18.649507,31,0,1
5760003,ctr betim,32671550,-44.191891,-19.948998,31,0,1
9067396,marilia vitoi rosa nominato,35010080,-41.9491351,-18.8596131,31,1,1
6762654,ioc instituto do osso e da cartilagem,38050400,-47.932,-19.748,31,1,1
6228925,isabela pessoa elias goncalves,30180080,-43.9548782,-19.9180975,31,1,1
7948425,academia da saude maravilhas mg,35666000,-44.676,-19.516,31,0,1
2932970,odonto care sete lagoas,35703310,-44.247,-19.466,31,1,1
7057652,ampliar nucleo de psicologia aplicada ltda,39800078,-41.5051729,-17.8661752,31,0,1
7239602,sorrimar,37200018,-45.0,-21.245,31,1,1
1077848,centro de saude avivah,33915005,-44.087,-19.767,31,0,1
483915,rcv servicos medicos e educacionais ltda,35930437,-43.14414739608765,-19.82830149236311,31,0,1
6194567,consultorio de dermatologia,35290000,-40.98,-18.782,31,0,1
7541732,fisiocenter,36265000,-43.366,-20.905,31,1,1
7719663,luiza cacia capelao ferreira,30150220,-43.9311437,-19.9170701,31,0,1
5597838,clinica de fisioterapia fisioqualy ltda,35634026,-45.252,-19.736,31,1,1
7615418,clinica sao jose,39460000,-43.9351804,-14.7613671,31,1,1
3340333,unidade de saude udr,39860000,-40.372352600097656,-17.827716964964704,31,1,1
7152434,mlab medicina diagnostica,39803145,-41.5082609,-17.8701132,31,1,1
6572189,ceai iv centro educacional de assistencia integrada ao idoso,38415396,-48.3319645,-18.8911896,31,0,0
6165443,clinica medica de ortopedia e fisioterapia de araxa ltda,38184022,-46.9451589,-19.611632,31,1,1
6425593,posto de coleta laboratorio sao lourenco santa margarida,36913000,-42.251,-20.384,31,0,0
7307659,sermais clinica de saude,35661010,-44.608,-19.86,31,0,0
6392458,reabilitar e reeducar clin de fisioterapia e rpg,30330220,-43.939864,-19.9433928,31,1,1
7630093,farmacia municipal de mar de espanha,36640000,-43.00218343734741,-21.86382872119222,31,0,1
223301,consultorio odontologico lilian sheila,35240000,-41.472,-19.172,31,1,0
9604065,leonardo alessandro de carvalho pinto,36300072,-44.25997853279114,-21.134554406064456,31,1,1
5894190,marcos antonio do nascimento,32315000,-44.054,-19.932,31,0,1
2988976,saude brasil clinica medica,37902368,-46.611662,-20.7331079,31,0,1
2997983,laboratorio municipal,39642000,-42.604,-16.907,31,1,0
794546,clinica da dor,37190000,-45.51858901977539,-21.366718328444936,31,0,1
3328422,psf ar,37480000,-45.3426951,-21.9793791,31,0,1
9476563,horus clinica odontologica,38720000,-46.408,-18.779,31,1,1
9308806,t e c servicos medicos ltda,35900109,-43.227,-19.619,31,0,1
3288528,oncocirurgica,30494360,-43.956,-19.817,31,0,1
3697258,oral sin implantes,36090320,-43.35,-21.764,31,1,1
7545517,samu 192 usa santos dumont,36240183,-43.553,-21.457,31,0,0
6303641,reinaldo scarponi,30150240,-43.9199196,-19.9237079,31,0,0
4124987,med clin,35010040,-41.9442688,-18.8542208,31,1,1
5708281,elizete maria de menezes,38200000,-48.932643,-20.0276842,31,1,1
3654044,lacchini,30220110,-43.9198971,-19.9390106,31,0,1
3691810,joao batista de oliveira,37553465,-45.92343091964722,-22.227276029363576,31,0,1
9773053,rogerio cordeiro leite,37800000,-46.710236,-21.305257,31,0,1
204234,nancy floriano,36010060,-43.35,-21.764,31,0,1
3439623,genemg,30130909,-43.9250649,-19.9407247,31,0,0
5105919,cpa clinica de psicologia aplicada,30421121,-43.9792696,-19.9344988,31,1,1
665045,clinica florescer,30330150,-43.9364757,-19.9453134,31,1,0
6802982,clinica do rim,37800000,-46.710269,-21.306975,31,1,1
5876575,tiago jose de paiva teixeira,37701033,-46.5692157,-21.7876348,31,0,0
3925935,karla alexandre larrart torres,35700642,-44.2447771,-19.4600228,31,0,0
5373409,clinica planalto ltda,31515300,-43.9501175,-19.8180641,31,0,0
3230554,celso eduardo rodrigues nunes de formiga,35570112,-45.4290424,-20.4639556,31,1,1
9077324,centro de saude camargos,30520460,-44.0196366,-19.9372274,31,0,1
4109600,giovanni tomba,37550019,-45.93331053095685,-22.227961323297194,31,0,0
6942806,esf campina verde,35502466,-44.88641381263733,-20.146175898852317,31,1,1
971871,consultorio de psicologia,36190000,-43.3423323,-21.1968539,31,1,0
3878430,clinica medica carijos,30120060,-43.9366953,-19.9197522,31,0,1
9779868,hematologica clinica de hematologia s a,30150274,-43.9227755,-19.9269124,31,0,1
9705767,academia da saude 1 de luz,35595000,-45.686,-19.801,31,0,1
3524434,laboratorio viva mais,39818000,-41.4851486,-17.0751891,31,0,0
5852048,clinica geral em odontologia,37278000,-45.131,-20.898,31,0,0
5548926,clinica unimed pleno unidade betim,32600320,-44.2048957,-19.9702226,31,1,0
6915000,axial centro de imagem,32310000,-44.0357681145424,-19.943117,31,0,1
3197727,ubsf jardim das palmeiras iii,38412244,-48.277,-18.919,31,0,0
4114655,diovana raspante nutricionista,36773082,-42.6978673,-21.3800846,31,1,1
3072398,apae,39437000,-44.305,-15.903,31,0,0
9597115,consultorio villamea,35930480,-43.173115253448486,-19.808508359444797,31,1,1
9967893,fisio saude,37750000,-45.920478,-21.679651,31,0,1
3938514,andre luiz gouveia,37553402,-45.9308636,-22.2308206,31,0,0
4074912,laboratorio de analises clinicas jf,36035000,-43.3484305,-21.7664571,31,0,1
2135256,clinica odontologica leo kning,39670000,-42.859,-17.857,31,0,1
9396977,unidade basica de saude central,37800000,-46.716726422309875,-21.309611251524306,31,1,1
7595085,oral odontologia,36200104,-43.7733739295281,-21.2277841,31,0,1
9836845,unidade basica de saude ilton pereira pinto,39492000,-44.3602278,-15.5760243,31,1,0
9283692,isaias de assis neves,35020270,-41.9414015,-18.854588,31,0,1
9871829,consultorio dr ricardo ferreira mariz,38950000,-46.539,-19.478,31,1,1
2675277,unidade sanitaria rural de alto bergamo,29670000,-40.466804,-19.764702,32,1,0
3193543,cintra rezende consultoria medica ltda,29056200,-40.29970,-20.30507,32,0,1
109150,med plastica,29056295,-40.302344262599945,-20.293712189171305,32,0,1
3920011,marco antonio novaes,29165680,-40.2501068,-20.1944853,32,0,0
2547996,dr robson pupa xavier,29500000,-41.532440185546875,-20.766848275751773,32,0,0
7161298,lavoisier analises clinicas ltda,29900044,-40.0622957,-19.4073333,32,1,1
9626727,souza viana servicos de psicologia fonoaudiologia e nutricio,29560000,-41.67594909667969,-20.771803900797646,32,1,1
9679014,ouro dente protese dentaria,29900111,-40.072,-19.391,32,1,1
9801774,marilia tavares da silva de freitas,29146070,-40.3915716,-20.3391303,32,1,1
3821668,lrb instituto odontologico,29196112,-40.27208089828491,-19.82131714956947,32,0,0
7150199,gastrosul,29300045,-41.114336,-20.849893,32,1,1
4106989,alfa emergencias medicas ltda,29168071,-40.2435953,-20.1893326,32,1,1
3189163,neuromedi,29055450,-40.2983559707596,-20.29994515,32,1,0
3929353,mimomed,29400000,-41.3633123,-21.0612152,32,0,1
9053859,laboratorio de analises clinicas dr ribeiro ltda me,29709031,-40.631,-19.539,32,1,1
7681593,juliana loureiro amancio,29190920,-40.2726094,-19.8193069,32,0,1
7868758,a g alcebiades godoy fisioterapia,29050625,-40.3074038,-20.319590849999997,32,0,0
9246029,vila velha ocular,29102020,-40.29882788658142,-20.36258220483131,32,0,0
2485761,consultorio medico dr homero,29500000,-41.53400659561157,-20.762313836751883,32,0,0
2547945,dr jadir figueira rossi,29500000,-41.534714698791504,-20.762895697153315,32,0,1
9226753,cta barra de sao francisco,29800000,-40.891,-18.755,32,1,1
9557377,eloisa fin,29295000,-41.0124135017395,-20.675170041332322,32,0,1
3696502,jane cerqueira,26210172,-43.451,-22.759,33,0,1
9849238,alergoped bmm,22640101,-43.3207939,-23.0054903,33,1,1
909580,consulmed,26255060,-43.4505709140862,-22.76168645,33,0,0
148245,amechri laboratorios medicos,22220001,-43.1770121,-22.9308726,33,1,1
4027043,vitalife botafogo,22290080,-43.0711873,-22.8419367,33,0,1
6090052,consultorio dr renato silvio martins meressi,28605050,-42.531,-22.282,33,1,1
6882439,esf mato escuro,28200000,-41.0303575,-21.6857855,33,0,1
6486843,centro medico mar da barra,22630010,"-43,32939","-23,0106",33,0,1
9572171,laboratorio mattos e mattos,24030190,-43.,-22.,33,0,0
9976809,eliel figueiredo laboratorio e imagem miguel couto,26070461,-43.451,-22.759,33,0,0
5085713,jose marcio goncalves de freitas,27511300,-44.45135682821274,-22.46628844910387,33,0,1
9046828,rafael duccini ultra,26262070,-43.4498306,-22.7608161,33,0,0
9833773,rl dermatologia,22640907,-43.352381924113,-22.99702305,33,0,1
1043935,adriana souto lima,23080020,-43.6157968,-22.9025767,33,0,1
6373283,michi wa fisioterapeutas associados,28015055,-41.3241216,-21.7562546,33,0,1
5703026,katia de azevedo martins,28010140,-41.3241216,-21.7562546,33,1,1
6411770,unidade neonatal lagoa barra,22775040,-43.3779636,-22.9732178,33,0,1
5658586,paulo jazbik,28030430,-41.3241216,-21.7562546,33,0,1
2893851,instituto top master,22640100,-43.34573686122894,-23.00105886873087,33,0,1
9148744,angela de almeida leite,28895421,-41.91706895828247,-22.51281464636295,33,0,0
605689,dra monica esses,20050002,-43.1782062,-22.9051388,33,1,1
112674,laboratorio einstein santa lucia,22271042,-43.208,-22.903,33,0,1
6517323,clinf,28610160,-42.531,-22.282,33,0,0
2276046,ubs inconfidencia unidade sebastiao tavares dos reis,25850000,-43.293,-22.162,33,0,0
6199275,assistencia medica nesti malafaia,23052010,-43.5572612285614,-22.904099866708798,33,0,0
5054834,ronald young junior,28010260,-41.3241216,-21.7562546,33,1,1
9585826,vidalab,25931894,-43.173423,-22.713764,33,0,1
7065485,ses rj upa 24h mesquita,26584001,-43.4289211,-22.7832767,33,0,1
6880959,hospital areia branca,23510006,-43.679597,-22.9225766,33,0,0
5778395,qhz analysis clinicas,27910230,-41.78030848503113,-22.375396647127193,33,0,0
815861,cife clinica integrada felipe emerich,24020087,-43.,-22.,33,0,0
9343172,sidney de oliveira goncalves,22050001,-43.1779612,-22.9657902,33,1,0
9556710,tania brandao rios,22640000,-43.31414580345154,-23.005727604664862,33,1,1
7893930,odonto premium,22730261,-43.208,-22.903,33,0,1
5198054,gilza de fatima rodrigues enne,27913100,-41.77559852600098,-22.377103058560476,33,0,0
9892931,academia da saude varginha,27600000,-43.7304527,-22.2589786,33,0,1
109657,clarisse de moura cubric,28907090,-42.0194005,-22.8805529,33,0,0
3189236,meier trauma,20735110,-43.2823976,-22.9010858,33,1,0
9196978,eliel figueiredo diagnosticos medicos taquara,22730261,-43.3760443,-22.91889,33,0,1
2274590,laboratorio joana darc,25520000,-43.3713285,-22.8039227,33,0,0
3082288,arnaldo saverio mazza barra,22775003,-43.362847,-22.9831448,33,0,1
3443965,servico odontologico especializado em radiologia soer,27511300,-44.45142388343811,-22.466273577253983,33,0,1
9031731,psiquica mente consultoria e saude,27260180,-44.104,-22.523,33,1,0
7811799,clinicoop,22271110,-43.1896703,-22.9536704,33,0,1
101176,quiron,22740362,-43.37318658828735,-22.92226103870161,33,0,0
7742908,leandro linhares loures,24230100,-43.1094557,-22.904299,33,0,1
1066056,barbara oliveira franco,22251050,-43.18620809423557,-22.9472577,33,0,1
130656,clinica relevare,26255170,-43.54825973510742,-22.767555193853646,33,0,0
9814221,joao vitor braga ferreira,27910362,-41.777358055114746,-22.37601175133453,33,0,1
3335593,lerj servicos medicos,22260090,-43.1894224,-22.9485394,33,1,0
2846810,luiz nonato alves,22221020,-43.17844221650461,-22.931118046537996,33,1,1
2863448,ana carolina gerk caldeira,22790170,-43.4520388,-23.0117643,33,0,1
9956468,instituto lothus,25804080,-43.2093328,-22.1160304,33,0,1
49271,clinop instituto,24230101,-43.1114769,-22.9037994,33,1,1
2299259,laboratorio resende analises clinicas,27510070,-44.455071687698364,-22.46843493602791,33,0,1
823643,d saude clinica medica,26280370,-43.4826464,-22.7438295,33,0,1
7944950,clinica neurologica dr luis juan acosta,22730001,-43.3627877,-22.9169706,33,1,0
7060335,sms capsi visconde de sabugosa ap 31,21030080,-43.2469309999999,-22.8521299999999,33,0,1
3528723,clinica e laboratorio unimed tres rios,25804030,-43.20985630250459,-22.117724408036345,33,0,1
7603797,valquiria aparecida gouvea abrantes,27511300,-44.45141851902008,-22.466323150080736,33,0,1
9994610,odontoclinica sorria com saude,22790704,-43.4703950217782,-23.0146629,33,0,1
4024923,dr jose godoy,22271092,-43.193698585211266,-22.95700075,33,1,1
6833896,fg consultoria medica ltda,22410901,-43.208,-22.903,33,1,0
673919,farmacias pague menos 358,21070040,-43.208,-22.903,33,0,1
9641319,roberta de abreu junqueira borges,22775001,-43.3700930053723,-22.9924482,33,0,1
4040899,tiago dias vasconcelos freguesia jacarepagua,22755155,-43.34100544452667,-22.94199814535936,33,0,1
2273799,unidade de saude da familia general severino sombra,27700000,-43.650033473968506,-22.397300617813936,33,1,1
511552,melissa alarcon guilherme cristofaro,22271110,-43.651,-22.866,33,0,1
815233,claudia moreira da costa,22640100,-43.32178,-23.00246,33,1,1
3662322,polo de dispensacao do componente especializado,23815260,-43.7780078,-22.8702392,33,1,1
380822,laboratorio richet gavea,22451901,-43.1752901,-22.9186199,33,0,1
9292144,paulo henrique santana rego,20071902,-43.2067386,-22.9103615,33,0,0
9312188,neurovida cuidados medicos,22640020,-43.3079024,-23.0070779,33,0,1
7933983,maria da gloria costa reis monteiro de barros,25953007,-42.966,-22.412,33,0,0
6638325,osoredo 44 servicos medicos,20520053,-43.22321,-22.92303,33,0,0
9318682,jose francisco ribeiro braga,25953400,-42.966,-22.412,33,0,0
802034,nina tartari lagoeiro,28630560,-42.6231,-22.2751,33,1,1
7146116,laboratorios reunidos doutor tullio rezende ltda,27580000,-44.56209182739258,-22.489104943422817,33,0,0
9832483,cirurgia plastica aline azevedo,22640102,-43.35264065,-22.999418900000002,33,1,0
2696339,unidade movel ii,26562180,-48.5786607,-25.9219251,33,1,1
4099648,dentista do povo,26185360,-43.399,-22.764,33,1,1
7586310,sidnei custodio da silva,20725050,-43.2803856,-22.9019111,33,0,1
3301370,cliged,22640101,-43.336524533351984,-23.00010000551335,33,0,1
2708361,ufrj instituto de neurologia deolindo couto,22290140,-43.176400,-22.953900,33,1,0
5472210,ultralab servicos diagnosticos,21810041,-43.4516103769349,-22.88316645,33,1,1
7358776,scanrios,25850000,-43.2937674,-22.1588969,33,1,1
817066,apple odontologia atibaia,12942560,-46.55,-23.117,35,0,0
3729435,gisele sayuri takata,7661435,-46.588859,-23.260983,35,0,0
7206771,upa geisel,17033841,-49.025888442993164,-22.32687422536304,35,1,1
459283,laboratorio de analises clinicas oswaldo cruz caraguatatuba,11672901,-45.4366314,-23.6542828,35,0,0
752576,ama associacao de amigos do autista andradina,16901123,-51.3687263,-20.8890525,35,0,1
9133968,cons fisio luis otavio marques da silva,2009030,-46.636,-23.548,35,1,1
933562,boss diagnosticos,4101000,-46.6398509,-23.5709028,35,1,0
3599388,riolab sjriopardo,13720000,-46.8918998,-21.6017767,35,0,1
6601146,cecchetti clinica medica oftalmologica ribeirao preto,14015120,-47.81,-21.178,35,1,0
9810463,centro de controle de zoonoses ccz guarulhos,7175370,-46.53282880783081,-23.462931395831852,35,1,1
6497853,centro espec cesame,5409000,-46.636,-23.548,35,0,0
6113737,luciana modesto de abreu balista,13015903,-47.0585477,-22.8985828,35,1,0
3635163,marcio nacif,19900250,-49.862119,-22.984156,35,1,1
5711940,apae de regente feijo,19570000,-51.301791071891785,-22.23006181065033,35,0,0
7211791,clinica medica othocape,17900000,-51.533,-21.483,35,1,0
3325369,maria claudia de campos forti,13360021,-47.50308036804199,-22.995138155906982,35,0,0
7994230,special care,4702000,-46.4107,-23.3724,35,0,1
9454616,ana carolina bordonale delefrate,14660000,-47.838,-20.772,35,1,1
9335978,magali carvalho dos santos,6453062,-46.8507852,-23.4977956,35,0,0
2072394,centro de especialidades odontologicas tipo ii,12604010,-45.11711597442627,-22.73332156946398,35,1,1
486485,central rede de frio gve viii franca,14406781,-47.4289442,-20.5454554,35,0,1
9951318,mente e vida,19061552,-51.419663429260254,-22.12804433152046,35,1,1
5250390,cons odonto alain haggiag,1243001,-46.6600056,-23.5479249,35,0,0
7160984,central de regulacao caraguatatuba,11675300,-45.43437138672095,-23.612600912506615,35,1,0
3897036,daniela canella fernandes piracicaba,13416460,-47.649,-22.725,35,0,1
3798410,prevseg,16025295,-50.457230508327484,-21.210149309620824,35,1,1
3768902,ferraz diagnostico por imagem,19013190,-51.39410734176636,-22.134146497862368,35,1,1
9288449,odontologia itoo,8674170,-46.31211519241333,-23.53900587789063,35,0,0
6412572,consultorio de fonoaudiologia luciana maluf cervone,13450029,-47.4179765,-22.7534227,35,0,0
248924,cons odonto grasiele rodrigues,8010090,-46.3820541,-23.4867234,35,0,1
9894128,lane oliveira maia eireli,13738300,-47.005,-21.468,35,1,0
9251529,hanne magalhaes failla,12210110,-45.8808584,-23.1861806,35,1,1
7118198,luciane rossi nunes sorocaba,18047360,-47.4624915,-23.5184785,35,0,0
7173946,consultorio medico renata mizusaki iyomasa botucatu,18607143,-48.45202445983887,-22.890537312689936,35,1,1
6960707,samu 192 cavadas motolancia ial1091 guarulhos,7180000,-46.519084,-23.469098,35,0,0
6082122,glaucia blumer paulon,13385068,-47.296,-22.778,35,1,1
2906139,espaco vem ser,15371190,-51.105502,-20.641417,35,0,1
6946127,samu 192 regional litoral sul 1,11702200,-46.4242405,-24.0053203,35,0,1
5452562,medclin psicologia taubate,12030070,-45.555,-23.026,35,0,0
3271722,ippo instituto paulista de patologias oculares,4534000,-46.657048,-23.6014209,35,0,1
2085577,hospital argia provisao,12233000,-45.8851767,-23.2261078,35,0,0
3476588,instituto de cardiologia guarulhos,7090070,-46.532957553863525,-23.463049496814346,35,0,1
6110312,sheila gonzalez,12223070,-45.8360673,-23.1803253,35,1,0
9703306,fernanda louro hernandes verdegay,7013040,-46.529744,-23.474137,35,0,1
6692141,bmaq clinica de otorrinolaringologia,13013161,-47.0733731,-22.8965841,35,0,0
9701923,luis antonio monteforte cassaro odontologia,14240000,-47.3048589,-21.2753451,35,0,0
223972,cons psico vanda langner,4733100,-46.7042057,-23.6500726,35,1,1
5598370,cons fonoaudiologia luciana frabasile,4542050,-46.636,-23.548,35,1,1
2950545,pa oriente,17570000,-50.0919906,-22.1548724,35,1,1
5263867,moyses elias,13023190,-47.0622798,-22.8918109,35,0,1
3345394,dulce rondina guedes,11065001,-46.3377955,-23.9582857,35,1,0
5174988,consultorio medico dr alvaro sanches piracicaba,13419314,-47.649,-22.725,35,1,0
9402497,andrea neves silva giovannetti ribeirao preto,14085430,-47.81,-21.178,35,0,0
118621,laboratorio de analises clinicas taquari,18740000,-49.247342348098755,-23.533177875852925,35,1,0
5720613,glaucia maria lombardi ferreira de o pontes,12630000,-45.008347034454346,-22.665640435990756,35,1,1
38083,henrique salazar frizzera borges,18603193,-48.454005,-22.885645,35,0,1
6914705,aptus saude ocupacional,13026121,-47.0545052,-22.9136982,35,0,0
9378332,habilita,13140516,-47.1450,-22.7741,35,0,0
6526535,consultorio da helena,14920000,-48.56409788131714,-21.777275094595034,35,0,1
874426,lucas ravagnani silva ribeirao preto,14096030,-47.7920636,-21.199169666666666,35,1,1
9995110,nucleo de estimulacao e habilitacao guaianases,8410120,-46.414691,-23.545648,35,0,1
2051915,esf bela vista santa fe do sul,15775000,-51.6608793,-20.790337,35,0,0
5208572,consultorio odont dra lucilei lopes bonato taubate,12020240,-45.5602629,-23.0254798,35,0,1
851043,espaco cuidar unimed guarulhos,7095010,-46.5352565,-23.4592746,35,0,0
815691,orthodoncia,8674170,-46.3152715,-23.5387401,35,0,1
3490491,doctor odontologia assistencial ltda,6454080,-46.876,-23.511,35,0,0
9732012,mariana thais silva secondo,18602110,-48.443465,-22.893741,35,0,0
7729499,lucas tadashi celeguim,14600000,-47.85414934158325,-20.576124266320203,35,0,0
9171045,caps i dr jose luiz franca pinto,17320037,-48.4457954,-22.4125375,35,0,0
2745372,laboratorio guimaraes,17600020,-50.51195561885834,-21.93900512896301,35,1,0
2746271,hermelinda paim da silva,14230000,-47.57133722305298,-21.31354435277245,35,0,1
9333541,roseleine blazzi sao joao da boa vista,13876100,-46.798,-21.969,35,0,0
5502667,apae artur nogueira,13163154,-47.1696115,-22.5793689,35,1,0
5741467,consultorio odontologico joao de paula,13770000,-46.644,-21.529,35,0,1
6438415,cons medico cenim,2406040,-46.636,-23.548,35,1,1
3856771,dermoclin,12243820,-45.8948195,-23.1952584,35,1,0
9273689,del monte saude,5008010,-46.68087,-23.53029,35,0,1
658316,matheus schettini de carvalho ribeirao preto,14020510,-47.801665578313255,-21.19971734578313,35,1,1
5401798,consultorio medico fernando antonio mourao valejo,19050230,-51.39537334442139,-22.132516629139996,35,0,0
2688212,centro de especialidades odontologicas,18520129,-47.7443746,-23.1584129,35,0,1
678589,clinica enokibara e sempionato,14701130,-48.479,-20.949,35,1,1
6549128,consultorio dr carlos eduardo prevelato de almeida,17502000,-49.946,-22.214,35,0,0
3736636,lima e lima servicos medicos,4025010,-46.648,-23.679,35,1,1
9901116,rehability centro integrado de especialidades,12246002,-45.887,-23.179,35,1,1
9734430,fernanda assad pereira,14300033,-47.583409,-20.889312,35,0,0
3716856,claudia bittar kobbaz ferreira pindamonhangaba,12410050,-45.4549281,-22.9306566,35,1,0
5306035,consultorio odontologico fabio del nero,13209000,-46.8965756,-23.1875836,35,1,0
9053409,centro clinico angelica,1227000,-46.6556844,-023.5412795,35,0,1
72141,centro de especialidades de taruma,19820000,-50.5764794,-22.7523431,35,0,0
6339352,arysta lifescience corporation,18160000,-47.6476122,-23.7435903,35,0,1
7747411,gandini ortodontistas,14810261,-48.1603238,-21.7710143,35,0,1
918164,m82 comercial ltda me,12914490,-46.5343726,-22.9718134,35,0,0
6903584,renato murilo mazali odontologia pitangueiras,14750000,-48.2237061,-21.0118665,35,0,0
3528758,lucila soinatkvitz,6694090,-46.93835735321045,-23.54380579365785,35,0,1
6281184,suely aparecida zampieri da silva,15130027,-49.5149735,-20.8184694,35,1,0
3360768,mauro mengar,7110120,-46.53308629989624,-23.46295107933627,35,1,0
5334489,dulcineia pereira francisco,11060000,-46.3301947,-23.9451787,35,1,0
7915705,markall espaco de tratamento alternativo,18114040,-47.4422023,-23.5441917,35,0,1
6599443,centro de ref otorrino oftalmo e fonoaudiologia guaruja,11410161,-46.25937223434448,-23.995662489131288,35,0,1
6105386,vitalite fisioterapia,12712010,-44.9546767,-22.5628613,35,1,0
3221822,clinica ortonibra j saude,4150000,-46.6269301,-23.6187264,35,0,0
7566441,cons medico ser em cena,5002000,-46.6728167,-23.5290648,35,0,1
9166270,adriana freitas magnin,13040099,-47.0629094,-22.9293424,35,0,1
9911316,clinica gb odontologia,11450001,-46.3035824,-23.9417465,35,1,1
5274664,consultorio med dr rui jose a de macedo sumare,13177010,-47.22050428390503,-22.804945123725897,35,1,1
6698514,ivy christine de moura mesquita martinez sorocaba,18035190,-47.4647491,-23.4972633,35,1,0
7063067,saude pora,5319040,-46.636,-23.548,35,0,0
3619664,consultorio odontologico masiero nazareth,15014020,-49.374,-20.815,35,1,0
7169272,fundo municipal de saude de cubatao,11510039,-46.4232684,-23.88368515,35,1,0
2066505,cit central de imagem tatui sp,18271015,-47.857,-23.356,35,0,0
7085249,juniane nogueira da silva cavalheiro,16400040,-49.743,-21.679,35,0,0
408727,apae de sete barras,11910000,-47.924,-24.385,35,1,0
6951864,sindicato trab ind papel papelao e cortica de jundiai,13201843,-46.884,-23.186,35,0,1
106690,vanessa moreira dantas,12916360,-46.537817,-22.971624,35,1,1
2864746,jane yara chagas manao,6016020,-46.79201602935791,-23.53298606380227,35,0,1
3574792,humanus clinica cirurgica,13845432,-46.948463916778564,-22.350849787171462,35,0,0
5360331,emschafer odontologia,6850770,-46.8496622,-23.7182833,35,0,1
7272642,base samu centro bom retiro uram mc1089,1129000,-46.64844,-23.52428,35,1,1
2056887,ubs centro paulinia,13140141,-47.150466442108154,-22.769434826470018,35,0,0
9171762,clinica medica e psicotecnica ipiranga,4208040,-46.601522,-23.580675,35,1,1
9639381,vicente labello junior,13190031,-47.316,-22.947,35,1,0
6390455,lab medico de anal clinicas dr gambarini s s ltda jau,17201340,-48.558,-22.296,35,0,1
7998228,ju bemestar,13780000,-46.739,-21.661,35,0,1
3799816,kelly cristina diordiu jodar,9070240,-46.538,-23.664,35,0,0
9798978,drogaria sao paulo campo limpo iii,5789000,-46.636,-23.548,35,0,1
816507,consultorio dr roberto denis huber,13010211,-47.0642541,-22.898301,35,1,1
9047522,consultorio medico cristiane bertucco bazan,19050580,-51.40294790267944,-22.132178727166806,35,1,1
769371,impulso lorena fisioterapia ltda,12600030,-45.1049662,-22.7427417,35,0,1
921874,praticelab,9210100,-46.5205229,-23.6392058,35,1,0
208019,one laudos diagnosticos medicos,4505001,-46.6759908,-23.6070238,35,0,1
9069305,clinica dr adilson duarte,14015900,-47.810847759246826,-21.176508545674142,35,1,1
909130,sls psicologia,12917021,-46.54567,-22.97604,35,0,1
421677,vmax servicos medicos,5073010,-46.636,-23.548,35,0,0
3716716,paulo henrique nogueira rezende pindamonhangaba,12410040,-45.45949727296829,-22.929758513750922,35,0,1
7780354,instituto de nefrologia de ilha solteira simples limitada,15385000,-51.3500549,-20.4285987,35,1,0
2932520,pereira penha servicos medicos,12246260,-45.9048551,-23.2196493,35,0,1
7090455,nathalia de biasi braghim,13660033,-47.47784614562988,-21.85345301754639,35,1,1
9362614,jessica clinica fisioterapeuta capivari,13360000,-47.508,-22.995,35,0,0
6756255,clinica salzgeber de aruja,7401345,-46.32212519645691,-23.39406054906739,35,1,1
3233383,biofisio araras,13600569,-47.377166748046875,-22.356069085570734,35,0,0
9724087,clinica medica ronconi,13270020,-46.9938186,-22.9733803,35,0,1
2079542,maternidade santa joana,4103000,-46.63844347000122,-23.574371636644944,35,1,1
9592687,unidade basica de saude do bairro sao jose,18500000,-47.831854820251465,-23.05529116848202,35,1,1
988855,prime portal,5711001,-46.74269697668817,-23.613655145445538,35,0,0
5971683,consultorio medico marcos correa de oliveira romano,13450030,-47.4154062,-22.7561451,35,1,1
4049799,ubs comendador jose gonzalez,3367040,-46.5338965,-23.5702511,35,1,1
2790092,centro de saude ii dr jacob casseb,17120011,-48.990397453308105,-22.477327878530414,35,0,1
3419738,odontologia donata de souza,5049000,-46.636,-23.548,35,0,1
9978380,cons odonto eduardo de castro miranda,4559002,-46.5693184,-23.5440921,35,0,1
7431635,dna consult genetica e biotecnologia ltda,13560340,-47.8856526,-22.0223412,35,0,0
5361877,dr roque menucelli,9750480,-46.554667353630066,-23.690428412267075,35,0,1
3473945,vital lab laboratorios analises clinicas ltda,9400320,-46.413,-23.711,35,0,0
4139844,drogaria sao paulo,18076005,-47.47822885,-23.46667755,35,0,1
9050574,elaine cristina mariani,14802350,-48.17326,-21.7766512,35,0,0
6053289,clinica de psicologia mercedes c serafim,17516000,-49.946,-22.214,35,1,1
9731237,cons fisio camila aparecida da silva lima,5683000,-46.636,-23.548,35,1,1
7943350,felisa guisard leal taubate,12041065,-45.5791751,-23.0296889,35,1,1
6178731,martucci e correia,14021230,-47.81,-21.178,35,1,1
9236244,franciana berzoti regula,14015130,-47.81,-21.178,35,1,0
3688720,baby e teen,3307005,-46.636,-23.548,35,0,0
6244203,consultorio fernanda podboi,9530402,-46.551,-23.623,35,0,0
5399203,bio center lab a clinicas posto de coleta de piracicaba,13400140,-47.649,-22.725,35,1,0
7990359,clinica medica c e c health care,4035001,-46.636,-23.600,35,0,1
2746719,ubs jd sao vicente,6713100,-46.8567444,-23.6019761,35,0,0
6164226,c e e p de tremembe,12120001,-45.549,-22.958,35,0,1
6928498,catia aparecida clinica odontologica,7110140,-46.53242111206055,-23.462931395831852,35,0,0
87564,bdm,3810110,-46.636,-23.548,35,1,1
3003280,hospital de desinternacao progressiva,7860400,-46.7372763,-23.3373172,35,1,1
6311466,clinica medica acacio valentoni taubate,12020000,-45.555,-23.026,35,0,1
9549781,ambulatorio de saude da mulher e da crianca,16200027,-50.34,-21.289,35,0,0
6665632,luciana couto atrib,13300025,-47.2923094,-23.2728985,35,1,1
4111923,ac medicina de excelencia,1504000,-46.6397806,-23.5698875,35,1,1
6186157,consultorio odontologico daniel teixeira araujo prado,13330210,-47.2154116,-23.0831449,35,1,0
7890516,clinica sao miguel,14530000,-48.0321761,-20.1823648,35,0,1
9496319,jonas de andrade silva,13092141,-47.0406115,-22.9051595,35,0,1
7540833,angiovale,12606580,-45.11466979980469,-22.735003768677103,35,0,1
3018369,penitenciaria ii de potim,12525000,-45.31465530395508,-22.81289658014056,35,0,0
6552714,carolina camara anselmo,13561352,-47.891,-22.018,35,1,0
7790996,liliani cristina cecchim,15860000,-49.24041420221329,-21.079762515210074,35,1,1
9980229,eap ezidio pelloso 2 monte alto,15910000,-48.498523235321045,-21.25829137869722,35,0,1
7107447,consultorio isolado fabiane almeida,18400010,-49.2238118,-23.7231475,35,1,1
7125429,carol kojo rodrigues sorocaba,18031020,-47.4569034576416,-23.51433469535982,35,0,1
35602,tancredi saude,18134240,-47.135,-23.529,35,0,1
5190304,spaco crescer centro de vivencia terapeutica,6020010,-46.776543,-23.5379259,35,0,0
2696185,centro de especialidades odontologicas de piracicaba,13416250,-47.649,-22.725,35,1,1
2097028,ubs parque industrial,15025030,-49.386525,-20.797858,35,1,0
3149277,clinica infantil dr cesar santo donatelli sc ltda,9310720,-46.4547388,-23.6693872,35,0,1
7560303,agilmed remocoes e emergencias medicas,3121020,-46.636,-23.548,35,0,0
3923371,clinica pro vida,14870810,-48.32531690597534,-21.25562167575163,35,0,0
7462166,mayara carinhato e silva,17250059,-48.73441,-22.0742283,35,0,1
6433855,clinica de especialidades medicas senise,13201840,-46.884,-23.186,35,0,1
3978788,consultorio medico renata s de andrade vargem g do sul,13880000,-46.894,-21.832,35,1,0
4127676,imifarma 7490,1532020,-46.6357279,-23.5718021,35,1,1
6053254,consultorio odontologico juliana p felipe,17501470,-49.946,-22.214,35,1,1
9218793,fera servicos medicos,4041004,-46.6443823,-23.6014547,35,1,1
9354891,dr tania m s l zenero reumatologista piracicaba,13419100,-47.649,-22.725,35,0,1
3587126,jose carlos de moraes teixeira,11609000,-45.40555000305176,-23.798460403487404,35,1,1
938424,espaco terapeutico crescer e aprender,12308660,-45.9680772,-23.3075372,35,0,1
9129537,psico capivari ltda me capivari,13360000,-47.508,-22.995,35,0,0
9553266,ferreira clinica de psicologia,11700903,-46.403,-24.006,35,1,0
3902358,alessandra montemor,18530000,-47.715,-23.102,35,0,1
9837159,clinica la sensitive,15135018,-49.521,-20.819,35,1,1
7862180,usf jardim sao joao scrpardo,18915774,-49.633,-22.899,35,0,1
3585689,clinica pro saude suzano,8673110,-46.31260871887207,-23.541081272804252,35,0,1
5126711,clin derm dra solange aparecida dinis de menezes gomes,6010070,-46.79201602935791,-23.533005736845972,35,0,0
894885,clinica imuniza,1224010,-46.651494,-23.5426322,35,1,0
2925494,marcussi servicos de saude,14020510,-47.801665578313255,-21.19971734578313,35,1,0
3794954,fermivita cons medico em ginecologia e obstetricia taubate,12020270,-45.5599138,-23.0289903,35,0,1
2091305,h o redentora hospital de olhos,15015200,-49.385,-20.817,35,1,1
1083449,matheus peneira galitesi,4746110,-46.7093449,-23.6622932,35,1,1
9809546,fabio dos santos carvalho,8673230,-46.319453716278076,-23.53190404186818,35,0,1
4047273,unidade basica de saude bela vista,17063060,-49.0930385,-22.3066474,35,0,1
5229618,maria tereza torres tricarico,16400523,-49.743,-21.679,35,0,1
2865238,cons odonto andre basta,3319001,-46.562893676540234,-23.5449554892447,35,0,1
9560084,intermedici saude total piracicaba,13416320,-47.649,-22.725,35,0,0
3934381,variclin molestias vasculares,1332000,-46.6534417,-23.5605517,35,1,0
975478,drogaria jardim costa e silva ltda,11500280,-46.425,-23.895,35,0,1
4048849,vigilancia em saude monte alto,15910000,-48.491785526275635,-21.259181268925015,35,1,1
981060,marcia cesar pesce,13468450,-47.3549109,-22.7448274,35,1,0
3240630,esf iv dr carlos aparecido bandeira avare,18702592,-48.926,-23.099,35,0,1
9335021,eugenia vitoria fernandes dos santos,12080260,-45.555,-23.026,35,1,1
6222838,rosana aparecida souto cruz,14020420,-47.81,-21.178,35,0,0
5678307,clinica santa madre paulina,16400155,-49.743,-21.679,35,0,1
6326137,consultorio de fonoaudiologia cecilia fortuna marrach,11025001,-46.3154228,-23.9668411,35,1,1
213411,conquistando sorrisos clinica odontologica,6343410,-46.835811138153076,-23.53044821649826,35,0,1
4115600,odonto charm,7115000,-46.5390569,-23.4475094,35,1,0
5341671,alda lucia santos teixeira,14025020,-47.80761065676855,-21.189938672699526,35,1,0
3422542,ville servicos medicos ltda,6454050,-46.876,-23.511,35,0,1
6107559,consultorio odontologico leda gomides,14160030,-47.996125,-21.134756,35,1,1
849065,erika nogueira loures,13468180,-47.3387832,-22.7504258,35,0,0
6890628,gilmara dias rocha sao joao da boa vista,13870331,-46.798,-21.969,35,0,1
6125840,marcos vinicius albertini,13300015,-47.2989539,-23.2678614,35,1,0
5253411,consultorio odontologico tadao nishimura pirapozinho,19200000,-51.5,-22.275,35,0,0
6532055,cons medico l yamakami,1239040,-46.636,-23.548,35,0,1
706183,n duarte psicologia limeira,13480565,-47.402,-22.565,35,0,0
535885,farmacia menor preco do trabalhador e aposentado,87250000,-52.34455347061157,-23.915205370075704,41,0,1
3516954,policlinica alvorada,87033430,-51.939,-23.425,41,0,0
5274761,solange renata bot,80040280,-49.2485035,-25.4186378,41,0,1
3352080,laboratorio de pesquisa e analises clinicas sanitas,87890000,-52.617,-22.709,41,0,1
106992,clinica medica graca saude,87501250,-53.325,-23.766,41,0,0
5064716,ortoplus,87010460,-51.939,-23.425,41,0,0
3647595,fisio corpus de goioere,87360000,-53.028,-24.185,41,0,1
7797753,consultorio odontologico marco antonio demite,85145000,-52.119,-25.737,41,0,0
3000907,hospital e maternidade santa brigida,80620000,-49.2904539,-25.461871,41,0,0
7948247,vida plena clinica reumatologica,80010010,-49.26648795604706,-25.430206865911913,41,0,0
2940558,farmacia sao jose,86840000,-51.32589340209961,-24.003425129963436,41,0,1
3670686,consultorio pediatria e adolescentes george karam,85010070,-51.5480556,-25.2505937,41,1,1
4039106,jr oftalmologia s s,81020010,-49.2818895,-25.4944333,41,0,1
9148817,trb servicos medicos,80730000,-49.3018592,-25.4339361,41,0,1
5049709,luiz mario sierakowski,80240060,-49.2798958,-25.451201,41,1,0
3073440,consultorio odontologicosatie,86945000,-51.856348514556885,-23.865372515956754,41,0,1
5125766,jefferson josue ferreira formaggio,80035040,-49.25292134284973,-25.407626239438084,41,1,0
6200559,marco antonio ubertini,83601170,-49.5295419,-25.4650185,41,0,1
296481,clinica hera ginecologia e obstetricia ltda,85601080,-53.0505339,-26.0912158,41,1,0
9735984,instituto acao e saude,85935000,-53.523995876312256,-24.412784865005918,41,0,0
3686760,francisco natel de camargo neto,83323350,-49.18752908706665,-25.441414452461807,41,0,1
3567354,reinaldo cardoso,84165230,-50.0129002,-24.7891778,41,0,0
6657125,unidade de saude acrydes lazarotto santos,83450000,-49.11356449127197,-25.205348861465424,41,1,1
3293262,upa brasilia,85806470,-53.423664,-24.941388,41,0,1
2578670,hospital doutor anisio figueiredo hzn,86084600,-51.163,-23.31,41,0,0
2870894,imtep gso,80010050,-49.2770539,-25.4349097,41,1,1
9893210,kellen regina ferri,80035230,-49.2573738,-25.4001064,41,0,0
5857031,clinica medica mazetto,85601020,-53.0545581,-26.0798613,41,0,1
7882327,nucleo diagnostico,87013060,-51.939,-23.425,41,1,0
5404886,rafael de lima villela,87502020,-53.5246041,-24.0098486,41,0,1
9970762,francisco evandro de almeida santana,87502380,-53.29635143280029,-23.769537574562253,41,0,1
9127410,luiza eastwood romagnolli,80240000,-49.2838615,-25.4441497,41,1,0
9325298,clinica odontologica regina zago,85555000,-51.990428,-26.492848,41,1,0
9828982,fb clinica de dermatologia,80240031,-49.2883862,-25.4493497,41,0,1
9985263,d cesar saude,85902015,-53.74419450759888,-24.726894360768114,41,0,1
2580160,danielle maria gomes magalhaes,86010001,-51.1614794,-23.3087487,41,1,0
2549808,posto de saude do cambara,83900000,-50.30588150024414,-25.92717196916469,41,1,0
9289399,ciar centro internacional de analise relacional,80250085,-49.2817711,-25.4433469,41,0,0
28606,servico de reabilitacao fisica nivel intermediario,85501230,-52.671,-26.229,41,0,1
9124349,odontoklinik,81610000,-49.2480129,-25.479581,41,0,1
4002601,a zanelato tencati servicos odontologicos,83005560,-49.195468,-25.5421863,41,1,1
5567726,clinica arana,80240080,-49.2781662940979,-25.436977080163505,41,1,1
7958404,interclinica,87200280,-52.60899782180786,-23.653329937833263,41,0,0
3876187,clinica santa marta,82940010,-49.2187877,-25.4469991,41,1,0
2584417,sms nova prata do iguacu,85685000,-53.347,-25.633,41,0,1
7845804,unidade basica de saude rodnei kalil abrao jayme,84240000,-49.94056463241577,-24.533030157322965,41,0,0
2783975,toshio yoshioka,85960000,-54.06565189361572,-24.55803588874334,41,0,1
2742691,posto de saude sao joao da colina esf,85200000,-51.761,-24.757,41,1,1
7123353,damiane caroline legnani da silva,87309115,-52.359974,-24.0303233,41,1,1
2587246,oncomaringa,87015380,-51.939,-23.425,41,0,1
3016773,esf concordia,85020070,-51.458,-25.395,41,1,0
3291936,clinica de fisioterapia fisio zeni,83408460,-49.18504,-25.3645,41,0,0
2947927,priscyla carniatto salomao cia ltda,85605025,-53.0465305,-26.0746872,41,0,0
2861143,elaine guibes cirurgia dentista,85035125,-51.458,-25.395,41,1,1
7226446,laryssa maria mendes de geus,84010310,-50.1112174987793,-24.94905471857174,41,0,1
966053,priscilla dalla costa da silva,87113260,-51.87519,-23.43123,41,0,1
2680823,centro de imagens,83203260,-48.509,-25.52,41,1,1
3001946,winston martins ortopedia,80060160,-49.273,-25.428,41,1,0
455288,panvel farmacias,85810090,-53.460566997528076,-24.95861176918787,41,0,1
4136829,j g steudel laboratorio,84053360,-50.177650451660156,-25.080040736792192,41,1,1
9819630,clinica municipal de fisioterapia,85410000,-53.2578777,-24.5263295,41,0,1
2729040,mario cesar raminelli,86181010,-51.2801456451416,-23.282842665275002,41,0,0
5373115,graziela gregio,85200000,-51.761,-24.757,41,0,0
2739429,posto de saude estrela gaucha 7 rs,85560000,-52.529657,-25.8554417,41,0,1
3752763,fisiobel,85601000,-53.0517148,-26.0795815,41,0,0
2582333,consultorio odontologico dr joao carlos zampeze,85887000,-53.98376941680908,-25.241085944731786,41,0,0
7958447,brazolotto psicologia,87200107,-52.60834336280823,-23.65771293085587,41,0,0
7323425,dent life,80230085,-49.2702589,-25.4379198,41,1,1
9504079,haiana cavalheiro,85502050,-52.671,-26.229,41,0,1
9105042,odontologia dr joseli rodrigues,87705090,-52.45842933654785,-23.082811199154794,41,0,0
3315827,clinica sgarbi,84010170,-50.162,-25.095,41,0,1
6856098,endocor endocrinologia e check up cardiologico,84500257,-50.6313863,-25.4628932,41,0,1
6012469,movimento,80510170,-49.2811194,-25.4135506,41,1,0
826146,santa tereza ortopedia tecnica ltda,88502161,-50.335450172424316,-27.819018491960104,42,0,1
3538125,centro de especialidades odontologicas ceo1,89503079,-51.01819843053818,-26.781789643644412,42,0,1
7877285,apae jose boiteux,89145000,-49.628,-26.958,42,0,1
9274359,valeria de oliveira dias eisenberg pires,89300168,-49.805,-26.111,42,0,1
7588003,clinica municipal de fisioterapia,88950000,-49.764,-28.997,42,0,0
3677508,vanessa stupp schweitzer,89160045,-49.6327859,-27.2207423,42,0,1
6622089,laboratorio biovitalle,89970000,-53.3242575,-26.533,42,1,0
210439,espaco bucal jo teixeira,88015120,-48.553235,-27.5920739,42,1,0
7236824,vacinas santa catarina filial 1,89020403,-49.056041836738586,-26.928024643771035,42,1,1
9051295,vitalle clinica de fisioterapia,88710000,-49.15463447570801,-28.56237975125648,42,0,1
9039309,ronald guimaraes mendes,88701150,-49.007,-28.467,42,1,1
880167,redeorto clinicas odontologicas,88200000,-48.6427965760231,-27.24618121954861,42,1,1
304514,viver clinica medica,88020302,-48.5449472,-27.5886919,42,0,1
998842,laboratorio philadelphia,88215000,-48.5023894,-27.15218,42,0,0
5852110,unidade basica de saude anna alaide pereira bettiol,88840000,-49.32067394256592,-28.527602749810043,42,0,0
6817785,ubs centro de corupa,89278000,-49.24197,-26.4264054,42,0,1
7595131,ambulatorio agropel,89580000,-50.921,-27.026,42,1,1
3628949,ultra med,88820000,-49.301276206970215,-28.718668111954933,42,1,1
2560712,ps nova petropolis,89600000,-51.601667404174805,-27.112312236990416,42,1,0
9869158,misslane de lurdes pereira,88501050,-50.33136248588562,-27.813673758455423,42,1,0
6817882,antelo laboratorio clinico ltda,89251600,-49.067,-26.486,42,1,0
2640384,celio lenzi,89165004,-49.643,-27.214,42,0,1
9999728,cuidado a mais,89802131,-52.6212341,-27.1012171,42,0,1
4151445,lm psiquiatria,89204250,-48.8503353,-26.2996777,42,0,1
3716244,consultorio dr portiuncolla cesar augustus gorini,88811042,-49.37,-28.678,42,1,0
7331649,unidade basica de saude de areias,88374000,-48.654,-26.899,42,0,0
6622909,evandro franco da rocha,89020400,-49.055832624435425,-26.92924424787557,42,1,1
7321112,biofisio clinica de fisioterapia,89802110,-52.6167566,-27.10409,42,0,1
3209830,clinica viecelli sc ltda,89600000,-51.50390625,-27.177347214691967,42,0,0
9102310,farmacia popular,88600000,-49.935951232910156,-28.292685758286336,42,0,0
7302339,clinica de cirurgia plastica andre pradi,88301215,-48.6603178,-26.9098277,42,1,0
6131573,clinica ebenezer 2,88015310,-48.54705,-27.589598,42,0,1
9513639,central de regulacao municipal ambulatorial,88420000,-49.831581115722656,-27.412652448842156,42,1,0
4156323,escola especial viver bem,88180000,-48.76723766326904,-27.519537637135873,42,1,0
6722075,enfermed,89801000,-52.6571501,-27.1015936,42,0,0
6466907,otavio maciel cardoso,88230000,-48.768,-27.265,42,0,0
673595,vital fisioterapia e saude,88523060,-50.326,-27.816,42,1,1
633496,superimunne vacinas,88015030,-48.5510428,-27.5939608,42,0,1
38865,consultorio odontologico michelle noga lima,88750000,-49.16952610015869,-28.27598189312685,42,0,1
7486049,laboratorio bio saude filial,89580000,-50.921223163604736,-27.026291954780902,42,0,1
9781889,corso filipin oftalmologia,89825000,-52.5334991,-26.9592332,42,0,1
5988969,consultorio odontologico,88385000,-48.662778,-26.7740772,42,1,1
9489770,sagra saude odontologia,88090090,-48.594216,-27.597296,42,0,1
5042380,clinica ammes,89802140,-52.618,-27.096,42,0,0
9462457,real medical clinic,89052000,-49.06436741352081,-26.923260887285032,42,0,0
2943158,anke assessoria em seguranca do trabalho,88309330,-48.6872511,-26.9066935,42,0,1
7880073,consultorio medico dr odilon batista soares,88960000,-49.629,-29.104,42,1,1
3664082,pro derme clinica dermatologica,89020400,-49.05664265155792,-26.928864019775357,42,0,1
755893,pedclin,89515000,-50.69436192512512,-26.932582547737095,42,1,1
9064516,giovanni enrico dias favretto,88354101,-48.9199934,-27.093371,42,0,1
9676848,unidade de saude de sao joao do oeste,89897000,-53.59562158584595,-27.09611444015509,42,1,0
5793009,renata leite monteiro,89801000,-52.693297,-27.0977908,42,1,0
4029690,clinica medica queiroz e valentini limitada,89802130,-52.9979246,-26.8525007,42,1,0
9440941,clinica orbem dalmolin,88840000,-49.3206524848938,-28.51840236021657,42,0,0
2596377,humana saude e seguranca ocupacional,89255072,-49.067,-26.486,42,1,1
6229778,gabriela antunes maldaner,93510360,-51.1813201,-29.6552051,43,1,1
2225913,unidade especializada policlinica guaiba,92704305,-51.33112907409668,-30.11331766727309,43,0,1
5685478,carlos joni salles,95560000,-49.727,-29.335,43,0,1
3971791,luiz carlos vargas,99530000,-53.06851387023926,-28.059066995215957,43,1,1
2265427,mamus mamografia e ultrassonografria ltda,96400130,-54.11179,-31.32603,43,0,1
2950456,clinica hospitalar ressignificar,93180000,-51.199164390563965,-29.70197663199198,43,1,1
7404107,theves theves,95930000,-51.985,-29.513,43,1,1
6458939,psicoclin clinica de psicologia e especialidades,93010080,-51.1489057,-29.7650676,43,1,0
4094581,servicos medicos especializados assistencia consultoria c,90450050,-51.189887401849575,-30.030656895886747,43,0,1
3603164,renato muller,96015590,-52.339014,-31.769651,43,1,1
881120,oral unic,94010180,-50.992523320911374,-29.941933355872866,43,0,1
692085,sao joao farmacias,95190000,-51.06713533401489,-28.97015135495043,43,0,1
862290,sao joao farmacias,90035070,-51.22145,-30.02925,43,1,1
7146973,odonto litoral,95590000,-50.1411922,-29.989337,43,0,1
6696317,cons med livia schneider bernardi,98801029,-54.25953805446625,-28.310463802754835,43,1,1
4063082,j j xavier olhos clinica e cirurgia de olhos,90020160,-51.223194771164344,-30.02982734874948,43,0,1
224243,felipe pereira lima marques,96010280,-52.336173,-31.767654,43,0,1
9904654,gilberto cardoso,93320060,-51.1305776,-29.6906722,43,0,1
3015734,ashrgs,96201220,-52.099,-32.035,43,1,1
6231225,daniela diebold iii,90470340,-51.18684768676758,-30.040863634751584,43,0,1
5007518,unidade de saude rincao,91787288,-51.17154836654663,-30.116213239691916,43,0,1
6924778,unidade basica de saude sao jose,99615000,-52.9021254898589,-27.52545975,43,0,1
7025661,clinica medica new baby,96600000,-52.676,-31.395,43,0,1
822639,rf clinica medica,99855000,-51.828603744506836,-27.81865791457469,43,1,1
3699617,acquaphysis clinica de fisioterapia e hidroterapia p fundo,99010100,-52.3996512,-28.2545778,43,1,1
6521231,secretaria municipal de saude de frederico westphalen,98400000,-53.394,-27.359,43,0,1
6415709,active health clinica da saude integral,92010300,-51.184,-29.918,43,1,0
9906096,laboratorio nobel s a,92010170,-51.184,-29.918,43,0,1
9440496,amor saude atendimento medico odontologico rapido,95020172,-51.195275,-29.1671187,43,0,1
513938,consultorio odontologico,97300971,-54.317538142204285,-30.33995179912213,43,0,1
9716696,talita faria machado,96010140,-52.344441,-31.763023,43,1,1
9552472,blanca odontologia,90630010,-51.182899475097656,-30.03922900080049,43,1,0
5436508,laboratorio caridade,98600000,-53.9294459,-27.4548864,43,0,0
414034,centro gaucho de medicina ocupacional ltda,92410110,-51.184,-29.918,43,0,1
9918825,nova med home care,95150000,-51.11614465713501,-29.373835650049656,43,1,1
3455572,ricardo p brandao rafael de m brandao ltda,97700375,-54.86971,-29.19081,43,1,1
9573992,clinica bettiol pressi,95980000,-52.005130648612976,-28.96996832077037,43,0,1
2970333,proaudi,95034000,-51.1861745,-29.1447407,43,0,1
9086714,centro integrado de psicologia,93010050,-51.147,-29.76,43,1,0
3765245,yorito kisaki,90620100,-51.216630935668945,-30.050745165623756,43,1,1
2251388,estrategia de saude da familia olarias 1,95910272,-51.993398666381836,-29.433570850888714,43,1,1
7746881,clinica medica fontoura e decusati ss me,92510260,-51.4662581,-29.6788688,43,0,0
3754901,renato pellegrini,96810072,-52.42868900299072,-29.720072929911485,43,0,1
4178637,habiliter psicanalise,91010006,-51.15875060140437,-30.010745337611475,43,1,1
57681,pro vasc diagnostico e tratamento,92010300,-51.184,-29.918,43,1,1
694142,cria pediatria,90510001,-51.19261,-30.02196,43,1,1
5263468,centro de atencao psicossocial infantil carazinho,99500000,-52.786,-28.284,43,1,0
179388,sao joao farmacias,92025500,-51.184,-29.918,43,0,0
9392041,policlinica,98640000,-54.101,-27.5,43,0,0
2250098,sindicato trab rurais sao paulo missoes,97980000,-54.935728311538696,-28.02250559629522,43,1,1
5282373,gisele graf ranquetat andrade carazinho,99500000,-52.8018752,-28.2829935,43,0,0
6443664,rafaela carniel sao jose do ouro,99870000,-51.5908924,-27.7667874,43,0,1
6724116,joel everton araujo lacerda,95320000,-51.61,-28.784,43,0,1
6556620,secretaria municipal de saude de segredo,96910000,-53.012,-29.269,43,0,1
2700921,unidade basica de saude,98690000,"-53,961032","-27,707482",43,1,0
678414,alfamen,90570020,-51.19905,-30.02257,43,1,0
7530307,consultorio dr denis duarte,97573438,-55.533,-30.891,43,0,0
5223520,flavia marzola da silveira,96400010,-54.112719,-31.326966,43,0,1
5164761,filial 02,90620001,-51.20332717895508,-30.047401900856688,43,1,0
2975181,sao joao farmacias,90880001,-51.21214846003645,-30.061853712828153,43,1,1
114480,clinica de implantodontia avancada,90440190,-51.194071,-30.019156,43,1,0
9959424,cedit diagnosticos,98170000,-53.8383106,-29.0773711,43,1,1
9361111,cetrat carazinho,99500000,-52.7834397,-28.2977941,43,0,0
2228602,hospital divina providencia fredwest,98400000,-53.40171933174133,-27.355940730073318,43,1,0
6247776,rafael pasquali,99250000,-51.934459805488586,-28.709940827811756,43,1,0
834505,orthus odontologia,97541260,-55.793445110321045,-29.78281626240774,43,0,1
9868259,clinica medica serafim dallagnol,98780768,-54.48068618774414,-27.86601613924978,43,1,1
2253526,ambulatorio especializado de saude mental,96020000,-52.345164150004756,-31.772344769645787,43,0,0
5384508,cezar arthur tavares pinheiro,96015420,-52.343040,-31.775345,43,0,1
76821,sorrire clinica odontologica,91910630,-51.239918,-30.103364,43,1,0
6483100,juciane junqueira,95880000,-51.966,-29.502,43,0,1
7739214,americo schaeffer lof carazinho,99500000,-52.8215184,-28.4517737,43,1,0
7588240,pronto atendimento bossoroca,97850000,-54.9026639,-28.7312365,43,1,1
9714057,cdr odontologia,90020171,-51.23,-30.033,43,0,1
6829589,laurinda da paixao camargo,99440000,-53.21030616760254,-29.089289412000706,43,0,0
5367476,ubs cleuza maria martins ussandizaga,96300000,-53.376,-32.566,43,0,1
2959917,psicolifers psicoterapia consultoria e ensino,90550110,-51.185299667465216,-30.021174319020247,43,0,1
6068502,aspeur,93525075,-51.11901679355004,-29.6650828,43,1,0
7426747,unidade basica de saude vila matos,79823010,-54.8289506,-22.2243995,50,0,0
9802126,thainara fernanda marques dos santos,79750000,-53.3496858,-22.2480824,50,0,1
3744817,eduardo luiz hindo,79002081,-54.619454,-20.467482,50,0,1
9272429,rede feminina de combate ao cancer de corumbams,79332000,-57.653,-19.009,50,0,0
3794318,cem,79380000,-56.378,-20.241,50,1,0
965278,kageyama servicos medicos ltda,79032050,-54.56657,-20.43788,50,0,1
7085044,clinica pro saude dr thaisa de rezende andrade,79420000,-54.044,-19.531,50,0,1
7734352,academia de saude,79180000,-53.75777721405029,-20.453613874889562,50,0,1
3933709,anderson carlos de figueiredo,79020201,-54.60057020187378,-20.453503297999255,50,0,1
260789,eduardo giordano de barros,79040150,-54.580111,-20.463562,50,1,0
261076,instituto dos olhos dourados,79811160,-54.806,-22.221,50,1,1
9083677,clinica de psicologia e reflexao,79215000,-55.27401924133301,-20.687716858013033,50,1,0
4000986,academia da saude,79760000,-53.2736677,-22.2980944,50,1,1
260649,instituto odontologico dra ana carla lima,79002400,-54.597031,-20.453218,50,1,0
705594,camila guerini desengrini,79490000,-54.5782142,-19.384611,50,0,1
5701910,secretaria municipal de saude de tapurah,78573000,-56.5540337562561,-12.771332107179624,51,0,1
2398710,bioclinico,78550003,-55.49941062927246,-11.862416091731152,51,0,1
5341329,instituto da visao,78850000,-54.29885,-15.55007,51,0,1
3054586,gastro centro,78015140,-56.097,-15.596,51,1,1
450502,esf padre miguel anges rodas ortiz,78710010,-54.636,-16.471,51,0,1
2842858,psique med plan servicos medicos,78050070,-56.078490862706715,-15.5899448,51,1,1
6617182,ronaldo silva jardim,78080000,-56.097,-15.596,51,0,1
7855249,central municipal de regulacao,78245000,-59.95065450668335,-15.007468859134276,51,0,1
9386106,drogaria brasil,78603000,-52.2634756565094,-15.891431340851941,51,0,1
9209166,lumi servicos medicos,78455000,-55.91174125671387,-13.071953803341374,51,0,1
2495015,hospital e pronto socorro municipal de cuiaba,78010100,-56.0949,-15.5989,51,0,1
863629,centro de especialidade medica e saude ocupacional cemec,78335000,-59.221556,-9.4578813,51,1,1
9700803,v f l consultorio psicologico,78820000,-54.9754609,-15.9545723,51,1,0
9564438,ubs aldeia furquim,78320000,-58.741,-11.378,51,1,1
5689252,luciana neder,78080000,-56.097,-15.596,51,1,1
3384551,esf amelio firmino de oliveira,78780000,-53.5518479347229,-17.979978096206402,51,1,0
7278284,radioface,78010100,-56.0954147,-15.5996521,51,0,1
702811,clinica speciali,78020000,-56.1053162,-15.6098701,51,0,0
5990114,abdo halek saleh abdalla,78600011,-52.26299285888672,-15.893010111716661,51,0,1
786985,vinha odontologia especializada,78500000,-55.456602573394775,-10.81037522667122,51,0,0
7409737,thiago silva nunes,75680236,-48.626,-17.744,52,0,0
713635,lyandra dos santos moreira,75901020,-50.92817544937134,-17.790903161355057,52,0,1
5067111,jeanne christine costa sinimbu,74210120,-49.261322021484375,-16.68513778266567,52,1,0
6022782,padrao laboratorio clinico,74916260,-49.245,-16.822,52,0,0
6221173,dentale odontologia,75901140,-50.9277294,-17.7817506,52,1,0
2358719,centro clinico integrado,74905180,-49.245,-16.822,52,0,1
2768712,vigilancia sanitaria de nazario,76180000,-49.88473176956177,-16.586102413354954,52,0,0
9885722,fundo municipal de saude cer ii,75920000,-50.597,-17.814,52,0,0
830542,celso rodrigues parreira filho,75907679,-50.9423034,-17.8158021,52,0,0
774529,espaco innovare psicologia e saude,75200000,-48.28,-17.301,52,1,0
7247214,usf antonio carlos pires,74693178,-49.26711559295654,-16.544844888218517,52,1,1
262935,viva medicamentos,74175020,-49.260743891666664,-16.7045129,52,1,0
988510,instituto ninar,75907679,-50.9436893,-17.8128086,52,1,0
9644113,leandro mauricio de oliveira,74435115,-49.302520751953125,-16.663081811575918,52,1,0
6012639,ceo centro de especialidades odontologica,76420000,-48.46,-14.474,52,1,0
3710645,joao pepeira franco,75530275,-49.22293961048126,-18.41861572990989,52,1,1
6316247,medical way,74110120,-49.271578788757324,-16.67969083152349,52,1,0
4184300,clinica da vacina,74175140,-49.2623907,-16.7016371,52,0,1
9444440,comunidade terapeutica chacara jesus cura,75145145,-48.9748205,-16.3475932,52,1,1
7198531,cog centro odontologico goiano,74015125,-49.259326457977295,-16.677573672788178,52,0,0
7785356,valerio salles amadeu,75533320,-49.2154928,-18.4189672,52,0,1
6536387,delanne diniz,75024100,-48.956624,-16.3264772,52,0,1
9874925,goi,74070100,-49.3188658,-16.6013102,52,1,1
6397182,sildevane da silva rocha vidal,76400000,-49.145286,-14.5222943,52,1,1
4091582,viviane candida de oliveira,72800500,-47.95557975769043,-16.253633148727186,52,1,0
7890435,academia de saude mossamedes,76150000,-50.215,-16.127,52,1,0
9730044,inac medicina laboratorial,74937620,-49.245,-16.822,52,1,0
7520522,marcelo goncalves teixeira,74140110,-49.27891731262207,-16.692845467172027,52,0,1
5224314,roberto alves pereira,74805250,-49.264540672302246,-16.679896379666964,52,0,1
922293,clinica sempre viva,71909360,-48.03540229797363,-15.839077245387893,53,0,1
9791302,instituto brasileiro de nutricao integrada,70830300,-47.93,-15.78,53,1,1
7559194,ubs 8 santa maria,72547325,-47.988415360450745,-16.01433193928484,53,1,0
6579078,clinica de psiquiatria e psiquiatria da infancia e adolecenc,70710149,-47.88671135902405,-15.784415017433117,53,1,1
901768,eduardo r c carvalho psicologia ltda,70719903,-47.88999454863006,-15.78518957715566,53,0,1
7051697,clinica tactus fisioterapia,70200730,-47.918028831481934,-15.837900592745994,53,0,1
9798161,brasilia implantes,70770100,-47.93,-15.78,53,0,1
3373177,clinica alexim,70670010,-47.93283462524414,-15.803815979153356,53,1,1
223565,dentz,72622100,-47.933349609375,-15.712950725807465,53,0,1
9064400,radiolife clinica odontologica,72015000,-48.058576583862305,-15.836311068643036,53,0,1
3109941,carddio,72115700,-48.06714355945587,-15.823661520383927,53,1,1
11495,ubs 6 almecegas brazlandia,72799899,-48.16887706518173,-15.538748047532371,53,1,0
9942165,ims odontologia e estetica,72243284,-47.93,-15.78,53,1,0
7997965,natalia nery dermatologia avancada,70200740,-47.93,-15.78,53,0,1
6585760,centro de atencao psicossocial ad iii ceilandia,72220161,-48.10380935668945,-15.83668264682637,53,0,0
9880097,advanced odontologia,70673416,-47.93,-15.78,53,0,0
943452,imeb imagens medicas de brasilia filial life gama,72405499,-47.8977510,-15.7921100,53,0,0
828734,radds solucoes em servicos medicos,71955100,-48.03,-15.85,53,0,1
805017,priscila leme,72115700,-47.6522548,-15.6104827,53,0,0
9828583,clinica medica dra marcia montenegro,70390108,-47.913243770599365,-15.813829317421071,53,1,1
